1 42860U 17042AM  19190.22352231  .00001806  00000-0  48368-4 0  9992
2 42860  96.9383  71.8357 0010611 139.1878 221.0165 15.39186874111122
1 42860U 17042AM  19190.61359569  .00001704  00000-0  45733-4 0  9996
2 42860  96.9382  72.2052 0010646 137.9519 222.2547 15.39187482111183
1 42860U 17042AM  19191.65378705  .00001936  00000-0  51690-4 0  9990
2 42860  96.9381  73.1903 0010763 134.6106 225.6021 15.39192692111344
1 42860U 17042AM  19193.66915080  .00002083  00000-0  55448-4 0  9995
2 42860  96.9383  75.0993 0010995 128.2351 231.9887 15.39201557111659
1 42860U 17042AM  19194.83935610  .00001740  00000-0  46643-4 0  9992
2 42860  96.9382  76.2077 0011081 124.5014 235.7281 15.39205719111830
1 42860U 17042AM  19194.90436741  .00001727  00000-0  46303-4 0  9999
2 42860  96.9382  76.2693 0011087 124.2927 235.9371 15.39205940111849
1 42860U 17042AM  19195.87953592  .00001608  00000-0  43234-4 0  9992
2 42860  96.9380  77.1929 0011163 121.2898 238.9443 15.39209318111990
1 42860U 17042AM  19196.13958049  .00001613  00000-0  43351-4 0  9990
2 42860  96.9379  77.4392 0011183 120.5182 239.7170 15.39210310112031
1 42860U 17042AM  19196.91971367  .00001709  00000-0  45833-4 0  9997
2 42860  96.9374  78.1778 0011171 117.9677 242.2701 15.39212794112158
1 42860U 17042AM  19197.17975746  .00001703  00000-0  45663-4 0  9996
2 42860  96.9374  78.4241 0011195 117.1839 243.0550 15.39213841112193
1 42860U 17042AM  19197.89487773  .00001623  00000-0  43608-4 0  9991
2 42860  96.9372  79.1013 0011237 114.9775 245.2640 15.39216040112308
1 42860U 17042AM  19198.47997539  .00001542  00000-0  41517-4 0  9999
2 42860  96.9371  79.6555 0011271 113.2220 247.0215 15.39217618112397
1 42860U 17042AM  19198.87003989  .00001536  00000-0  41371-4 0  9991
2 42860  96.9370  80.0249 0011288 112.0297 248.2150 15.39218967112457
1 42860U 17042AM  19199.91021106  .00001475  00000-0  39798-4 0  9990
2 42860  96.9368  81.0099 0011339 108.8540 251.3938 15.39221938112618
1 42860U 17042AM  19200.10524287  .00001470  00000-0  39669-4 0  9994
2 42860  96.9368  81.1946 0011349 108.2640 251.9843 15.39222547112647
1 42860U 17042AM  19200.62532780  .00001407  00000-0  38039-4 0  9998
2 42860  96.9367  81.6872 0011369 106.6683 253.5813 15.39223670112722
1 42860U 17042AM  19201.14541172  .00001400  00000-0  37857-4 0  9991
2 42860  96.9366  82.1797 0011399 105.1398 255.1110 15.39225277112805
1 42860U 17042AM  19201.86052665  .00001378  00000-0  37309-4 0  9990
2 42860  96.9366  82.8569 0011422 102.9570 257.2953 15.39227238112912
1 42860U 17042AM  19202.25058916  .00001330  00000-0  36072-4 0  9993
2 42860  96.9365  83.2263 0011437 101.7424 258.5106 15.39228033112972
1 42860U 17042AM  19202.90069251  .00001281  00000-0  34819-4 0  9991
2 42860  96.9365  83.8419 0011458  99.7522 260.5019 15.39229562113075
1 42860U 17042AM  19203.61580486  .00001419  00000-0  38346-4 0  9990
2 42860  96.9364  84.5191 0011469  97.5473 262.7077 15.39232360113182
1 42860U 17042AM  19203.87584538  .00001431  00000-0  38646-4 0  9997
2 42860  96.9364  84.7653 0011478  96.8022 263.4531 15.39233197113226
1 42860U 17042AM  19204.72097674  .00001468  00000-0  39589-4 0  9999
2 42860  96.9363  85.5656 0011489  94.2186 266.0374 15.39235756113353
1 42860U 17042AM  19204.85099684  .00001444  00000-0  38983-4 0  9997
2 42860  96.9363  85.6887 0011496  93.8377 266.4184 15.39235976113374
1 42860U 17042AM  19205.63111711  .00001387  00000-0  37522-4 0  9994
2 42860  96.9363  86.4275 0011518  91.4078 268.8488 15.39237703113497
1 42860U 17042AM  19206.15119580  .00001477  00000-0  39823-4 0  9990
2 42860  96.9363  86.9200 0011527  89.8897 270.3671 15.39239833113577
1 42860U 17042AM  19206.73628456  .00001454  00000-0  39231-4 0  9999
2 42860  96.9362  87.4741 0011522  88.0968 272.1598 15.39241272113665
1 42860U 17042AM  19207.90645941  .00001483  00000-0  39974-4 0  9993
2 42860  96.9361  88.5822 0011525  84.5847 275.6715 15.39244829113846
1 42860U 17042AM  19208.23150777  .00001458  00000-0  39330-4 0  9996
2 42860  96.9360  88.8900 0011524  83.5941 276.6618 15.39245557113895
1 42860U 17042AM  19208.88160372  .00001364  00000-0  36927-4 0  9994
2 42860  96.9359  89.5055 0011519  81.6445 278.6107 15.39246838113993
1 42860U 17042AM  19209.33667040  .00001353  00000-0  36643-4 0  9992
2 42860  96.9358  89.9365 0011517  80.2683 279.9864 15.39248038114064
1 42860U 17042AM  19209.85674594  .00001321  00000-0  35817-4 0  9998
2 42860  96.9358  90.4289 0011507  78.6991 281.5548 15.39249370114145
1 42860U 17042AM  19210.63685831  .00001358  00000-0  36752-4 0  9991
2 42860  96.9356  91.1677 0011493  76.3258 283.9267 15.39251770114261
1 42860U 17042AM  19211.74201590  .00001398  00000-0  37793-4 0  9990
2 42860  96.9354  92.2141 0011462  72.9953 287.2549 15.39254955114434
1 42860U 17042AM  19212.71715205  .00001532  00000-0  41225-4 0  9996
2 42860  96.9353  93.1375 0011429  70.0434 290.2043 15.39258627114587
1 42860U 17042AM  19213.62727804  .00001508  00000-0  40593-4 0  9995
2 42860  96.9351  93.9993 0011406  67.2159 293.0292 15.39261086114722
1 42860U 17042AM  19214.14734920  .00001446  00000-0  39017-4 0  9990
2 42860  96.9350  94.4917 0011384  65.6710 294.5724 15.39262310114809
1 42860U 17042AM  19214.66741982  .00001459  00000-0  39328-4 0  9992
2 42860  96.9349  94.9841 0011361  64.0878 296.1538 15.39263916114883
1 42860U 17042AM  19215.18749017  .00001541  00000-0  41433-4 0  9999
2 42860  96.9348  95.4765 0011338  62.4805 297.7592 15.39265812114962
1 42860U 17042AM  19215.83757732  .00001425  00000-0  38464-4 0  9995
2 42860  96.9347  96.0920 0011305  60.5194 299.7179 15.39267040115065
1 42860U 17042AM  19216.42265493  .00001560  00000-0  41917-4 0  9996
2 42860  96.9346  96.6460 0011277  58.7569 301.4782 15.39269420115157
1 42860U 17042AM  19216.87771456  .00001575  00000-0  42312-4 0  9992
2 42860  96.9346  97.0768 0011248  57.3561 302.8769 15.39270914115226
1 42860U 17042AM  19217.72282293  .00001965  00000-0  52303-4 0  9997
2 42860  96.9344  97.8770 0011196  54.6624 305.5668 15.39276044115359
1 42860U 17042AM  19219.08799343  .00002184  00000-0  57908-4 0  9997
2 42860  96.9343  99.1696 0011105  50.4612 309.7615 15.39282603115560
1 42860U 17042AM  19219.73807484  .00002272  00000-0  60158-4 0  9994
2 42860  96.9342  99.7851 0011050  48.6641 311.5555 15.39284439115662
1 42860U 17042AM  19220.12812116  .00001940  00000-0  51630-4 0  9993
2 42860  96.9342 100.1544 0011016  47.1637 313.0533 15.39285216115723
1 42860U 17042AM  19220.90821456  .00001834  00000-0  48931-4 0  9998
2 42860  96.9342 100.8930 0010949  44.9969 315.2164 15.39288976115849
1 42860U 17042AM  19221.42827595  .00001624  00000-0  43540-4 0  9994
2 42860  96.9342 101.3854 0010907  43.4262 316.7842 15.39290422115921
1 42860U 17042AM  19221.62329872  .00001631  00000-0  43721-4 0  9990
2 42860  96.9342 101.5701 0010888  42.7955 317.4137 15.39291271115954
1 42860U 17042AM  19222.46839631  .00001730  00000-0  46253-4 0  9995
2 42860  96.9342 102.3702 0010817  40.1434 320.0610 15.39294795116085
1 42860U 17042AM  19222.59841135  .00001622  00000-0  43471-4 0  9990
2 42860  96.9342 102.4933 0010806  39.7041 320.4995 15.39294885116101
1 42860U 17042AM  19222.92344847  .00001573  00000-0  42222-4 0  9993
2 42860  96.9342 102.8010 0010774  38.6899 321.5118 15.39295813116150
1 42860U 17042AM  19224.67864515  .00001471  00000-0  39599-4 0  9996
2 42860  96.9335 104.4625 0010618  32.7099 327.4804 15.39300954116426
1 42860U 17042AM  19225.84877260  .00001424  00000-0  38394-4 0  9997
2 42860  96.9333 105.5704 0010489  28.9044 331.2781 15.39304600116606
1 42860U 17042AM  19225.91377957  .00001412  00000-0  38106-4 0  9991
2 42860  96.9333 105.6319 0010482  28.6930 331.4891 15.39304758116612
1 42860U 17042AM  19226.69386305  .00001396  00000-0  37692-4 0  9994
2 42860  96.9331 106.3704 0010399  26.1936 333.9834 15.39307145116732
1 42860U 17042AM  19227.21391803  .00001409  00000-0  38015-4 0  9997
2 42860  96.9330 106.8627 0010346  24.4564 335.7171 15.39308838116813
1 42860U 17042AM  19227.66896567  .00001391  00000-0  37556-4 0  9992
2 42860  96.9329 107.2935 0010298  22.8751 337.2952 15.39310177116884
1 42860U 17042AM  19228.44904654  .00001368  00000-0  36950-4 0  9997
2 42860  96.9328 108.0320 0010209  20.2679 339.8971 15.39312403117001
1 42860U 17042AM  19228.90409323  .00001328  00000-0  35933-4 0  9997
2 42860  96.9327 108.4628 0010159  18.7265 341.4353 15.39313545117070
1 42860U 17042AM  19229.55415956  .00001335  00000-0  36116-4 0  9990
2 42860  96.9325 109.0781 0010079  16.5752 343.5822 15.39315347117170
1 42860U 17042AM  19229.61916613  .00001328  00000-0  35922-4 0  9999
2 42860  96.9325 109.1396 0010073  16.3471 343.8098 15.39315500117183
1 42860U 17042AM  19230.85428961  .00001291  00000-0  34987-4 0  9990
2 42860  96.9323 110.3088 0009917  12.1295 348.0189 15.39318766117372
1 42860U 17042AM  19231.89439169  .00001291  00000-0  34978-4 0  9997
2 42860  96.9322 111.2934 0009801   8.5083 351.6328 15.39321567117533
1 42860U 17042AM  19232.15441674  .00001308  00000-0  35419-4 0  9991
2 42860  96.9322 111.5395 0009758   7.6539 352.4855 15.39322423117574
1 42860U 17042AM  19232.86948526  .00001375  00000-0  37142-4 0  9996
2 42860  96.9321 112.2164 0009672   5.0993 355.0351 15.39324734117685
1 42860U 17042AM  19233.32452795  .00001438  00000-0  38736-4 0  9996
2 42860  96.9320 112.6472 0009629   3.4692 356.6620 15.39326462117754
1 42860U 17042AM  19233.90958084  .00001743  00000-0  46538-4 0  9990
2 42860  96.9320 113.2010 0009559   1.3384 358.7887 15.39330353117848
1 42860U 17042AM  19234.42962797  .00001889  00000-0  50295-4 0  9990
2 42860  96.9319 113.6933 0009471 359.6300   0.4938 15.39332895117924
1 42860U 17042AM  19234.88466952  .00001779  00000-0  47480-4 0  9992
2 42860  96.9319 114.1240 0009423 358.0729   2.0480 15.39333675117990
1 42860U 17042AM  19235.46972149  .00001802  00000-0  48055-4 0  9993
2 42860  96.9318 114.6778 0009363 355.8865   4.2303 15.39335863118089
